[{"OBJECT_NAME":"YAOGAN-37","OBJECT_ID":"2023-006C","EPOCH":"2026-03-09T23:15:16.754688","MEAN_MOTION":15.16132405,"ECCENTRICITY":0.00165574,"INCLINATION":43.1974,"RA_OF_ASC_NODE":311.9793,"ARG_OF_PERICENTER":108.2694,"MEAN_ANOMALY":251.9959,"EPHEMERIS_TYPE":0,"CLASSIFICATION_TYPE":"U","NORAD_CAT_ID":55244,"ELEMENT_SET_NO":999,"REV_AT_EPOCH":17481,"BSTAR":0.00034068516,"MEAN_MOTION_DOT":6.475e-5,"MEAN_MOTION_DDOT":0},{"OBJECT_NAME":"KOWSAR 1.5","OBJECT_ID":"2025-313S","EPOCH":"2026-03-09T21:18:16.087680","MEAN_MOTION":15.21036379,"ECCENTRICITY":0.00150628,"INCLINATION":97.409,"RA_OF_ASC_NODE":145.1794,"ARG_OF_PERICENTER":3.7915,"MEAN_ANOMALY":356.3432,"EPHEMERIS_TYPE":0,"CLASSIFICATION_TYPE":"U","NORAD_CAT_ID":67264,"ELEMENT_SET_NO":999,"REV_AT_EPOCH":1084,"BSTAR":0.00042645892,"MEAN_MOTION_DOT":9.43e-5,"MEAN_MOTION_DDOT":0}]
